start=new Date('2022-08-31T00:00:00.000Z').valueOf();
sats=[{"COUNTRY_CODE":"US","OBJECT_TYPE":"PAYLOAD","MEAN_ANOMALY":"241.7393","LAUNCH_DATE":"2022-07-22","PERIAPSIS":"487.558","MEAN_MOTION_DOT":"-0.01225502","RCS_SIZE":"LARGE","OBJECT_NAME":"STARLINK-4404","OBJECT_ID":"2022-084G","ARG_OF_PERICENTER":"130.0737","PERIOD":"94.389","CLASSIFICATION_TYPE":"U","TLE_LINE2":"2 53195  97.6557 303.1086 0002038 130.0737 241.7393 15.25609460  1300","SITE":"AFWTR","MEAN_MOTION":"15.25609460","ECCENTRICITY":"0.00020380","TIME_SYSTEM":"UTC","REV_AT_EPOCH":"130","APOAPSIS":"490.357","EPOCH":"2022-08-30T22:00:00.999936","SEMIMAJOR_AXIS":"6867.093","REF_FRAME":"TEME","TLE_LINE1":"1 53195U 22084G   22242.91667824 -.01225502  00000-0 -52554-1 0  9995","FILE":"3552179","DECAY_DATE":null,"ELEMENT_SET_NO":"999","INCLINATION":"97.6557","NORAD_CAT_ID":"53195","BSTAR":"-0.05255400000000","GP_ID":"211363882","MEAN_MOTION_DDOT":"0.0000000000000","EPHEMERIS_TYPE":"0","CENTER_NAME":"EARTH","MEAN_ELEMENT_THEORY":"SGP4","RA_OF_ASC_NODE":"303.1086"},{"INCLINATION":"97.6556","BSTAR":"-0.06819800000000","NORAD_CAT_ID":"53196","FILE":"3552179","DECAY_DATE":null,"ELEMENT_SET_NO":"999","MEAN_ELEMENT_THEORY":"SGP4","RA_OF_ASC_NODE":"303.0299","MEAN_MOTION_DDOT":"0.0000000000000","GP_ID":"211363164","EPHEMERIS_TYPE":"0","CENTER_NAME":"EARTH","EPOCH":"2022-08-30T22:00:00.999936","SEMIMAJOR_AXIS":"6893.966","APOAPSIS":"517.175","TLE_LINE1":"1 53196U 22084H   22242.91667824 -.01224072  00000-0 -68198-1 0  9998","REF_FRAME":"TEME","ECCENTRICITY":"0.00019490","MEAN_MOTION":"15.16697667","REV_AT_EPOCH":"130","TIME_SYSTEM":"UTC","MEAN_ANOMALY":"44.7024","LAUNCH_DATE":"2022-07-22","PERIAPSIS":"514.488","MEAN_MOTION_DOT":"-0.01224072","RCS_SIZE":"LARGE","COUNTRY_CODE":"US","OBJECT_TYPE":"PAYLOAD","TLE_LINE2":"2 53196  97.6556 303.0299 0001949  95.4044  44.7024 15.16697667  1308","SITE":"AFWTR","OBJECT_NAME":"STARLINK-4407","OBJECT_ID":"2022-084H","ARG_OF_PERICENTER":"95.4044","PERIOD":"94.943","CLASSIFICATION_TYPE":"U"},{"OBJECT_NAME":"STARLINK-4403","OBJECT_ID":"2022-084J","PERIOD":"94.891","ARG_OF_PERICENTER":"103.3935","CLASSIFICATION_TYPE":"U","TLE_LINE2":"2 53197  97.6556 303.0363 0002040 103.3935  79.3569 15.17527581  1308","SITE":"AFWTR","COUNTRY_CODE":"US","OBJECT_TYPE":"PAYLOAD","MEAN_ANOMALY":"79.3569","MEAN_MOTION_DOT":"-0.01223984","LAUNCH_DATE":"2022-07-22","PERIAPSIS":"511.912","RCS_SIZE":"LARGE","TIME_SYSTEM":"UTC","REV_AT_EPOCH":"130","MEAN_MOTION":"15.17527581","ECCENTRICITY":"0.00020400","REF_FRAME":"TEME","TLE_LINE1":"1 53197U 22084J   22242.91667824 -.01223984  00000-0 -66586-1 0  9999","APOAPSIS":"514.724","EPOCH":"2022-08-30T22:00:00.999936","SEMIMAJOR_AXIS":"6891.453","GP_ID":"211363295","MEAN_MOTION_DDOT":"0.0000000000000","EPHEMERIS_TYPE":"0","CENTER_NAME":"EARTH","RA_OF_ASC_NODE":"303.0363","MEAN_ELEMENT_THEORY":"SGP4","DECAY_DATE":null,"FILE":"3552179","ELEMENT_SET_NO":"999","INCLINATION":"97.6556","NORAD_CAT_ID":"53197","BSTAR":"-0.06658600000000"},{"TIME_SYSTEM":"UTC","REV_AT_EPOCH":"130","MEAN_MOTION":"15.17362373","ECCENTRICITY":"0.00021330","ARG_OF_PERICENTER":"111.4078","PERIOD":"94.902","OBJECT_ID":"2022-084K","OBJECT_NAME":"STARLINK-4385","CLASSIFICATION_TYPE":"U","TLE_LINE2":"2 53198  97.6557 303.0376 0002133 111.4078  61.5134 15.17362373  1302","SITE":"AFWTR","COUNTRY_CODE":"US","OBJECT_TYPE":"PAYLOAD","MEAN_ANOMALY":"61.5134","RCS_SIZE":"LARGE","LAUNCH_DATE":"2022-07-22","PERIAPSIS":"512.348","MEAN_MOTION_DOT":"-0.01242445","EPHEMERIS_TYPE":"0","GP_ID":"211363439","MEAN_MOTION_DDOT":"0.0000000000000","CENTER_NAME":"EARTH","RA_OF_ASC_NODE":"303.0376","MEAN_ELEMENT_THEORY":"SGP4","ELEMENT_SET_NO":"999","DECAY_DATE":null,"FILE":"3552179","INCLINATION":"97.6557","NORAD_CAT_ID":"53198","BSTAR":"-0.06800100000000","REF_FRAME":"TEME","TLE_LINE1":"1 53198U 22084K   22242.91667824 -.01242445  00000-0 -68001-1 0  9997","APOAPSIS":"515.288","EPOCH":"2022-08-30T22:00:00.999936","SEMIMAJOR_AXIS":"6891.953"},{"REV_AT_EPOCH":"130","TIME_SYSTEM":"UTC","ECCENTRICITY":"0.00020790","MEAN_MOTION":"15.17981384","SITE":"AFWTR","TLE_LINE2":"2 53199  97.6558 303.0399 0002079 106.9819  96.6702 15.17981384  1309","CLASSIFICATION_TYPE":"U","OBJECT_NAME":"STARLINK-4395","OBJECT_ID":"2022-084L","ARG_OF_PERICENTER":"106.9819","PERIOD":"94.863","LAUNCH_DATE":"2022-07-22","MEAN_MOTION_DOT":"-0.01265867","PERIAPSIS":"510.512","RCS_SIZE":"LARGE","MEAN_ANOMALY":"96.6702","OBJECT_TYPE":"PAYLOAD","COUNTRY_CODE":"US","RA_OF_ASC_NODE":"303.0399","MEAN_ELEMENT_THEORY":"SGP4","CENTER_NAME":"EARTH","GP_ID":"211363727","MEAN_MOTION_DDOT":"0.0000000000000","EPHEMERIS_TYPE":"0","BSTAR":"-0.06817400000000","NORAD_CAT_ID":"53199","INCLINATION":"97.6558","DECAY_DATE":null,"FILE":"3552179","ELEMENT_SET_NO":"999","TLE_LINE1":"1 53199U 22084L   22242.91667824 -.01265867  00000-0 -68174-1 0  9992","REF_FRAME":"TEME","SEMIMAJOR_AXIS":"6890.079","EPOCH":"2022-08-30T22:00:00.999936","APOAPSIS":"513.377"},{"TIME_SYSTEM":"UTC","REV_AT_EPOCH":"130","MEAN_MOTION":"15.17463239","ECCENTRICITY":"0.00020130","CLASSIFICATION_TYPE":"U","OBJECT_ID":"2022-084M","OBJECT_NAME":"STARLINK-4417","ARG_OF_PERICENTER":"97.2655","PERIOD":"94.895","SITE":"AFWTR","TLE_LINE2":"2 53200  97.6556 303.0381 0002013  97.2655  81.7684 15.17463239  1307","OBJECT_TYPE":"PAYLOAD","COUNTRY_CODE":"US","MEAN_MOTION_DOT":"-0.01224039","LAUNCH_DATE":"2022-07-22","PERIAPSIS":"512.125","RCS_SIZE":"LARGE","MEAN_ANOMALY":"81.7684","CENTER_NAME":"EARTH","MEAN_MOTION_DDOT":"0.0000000000000","GP_ID":"211363583","EPHEMERIS_TYPE":"0","MEAN_ELEMENT_THEORY":"SGP4","RA_OF_ASC_NODE":"303.0381","DECAY_DATE":null,"FILE":"3552179","ELEMENT_SET_NO":"999","BSTAR":"-0.06671300000000","NORAD_CAT_ID":"53200","INCLINATION":"97.6556","REF_FRAME":"TEME","TLE_LINE1":"1 53200U 22084M   22242.91667824 -.01224039  00000-0 -66713-1 0  9998","APOAPSIS":"514.900","SEMIMAJOR_AXIS":"6891.647","EPOCH":"2022-08-30T22:00:00.999936"},{"MEAN_ELEMENT_THEORY":"SGP4","RA_OF_ASC_NODE":"303.0387","CENTER_NAME":"EARTH","MEAN_MOTION_DDOT":"0.0000000000000","GP_ID":"211362877","EPHEMERIS_TYPE":"0","NORAD_CAT_ID":"53201","BSTAR":"-0.06544400000000","INCLINATION":"97.6556","FILE":"3552179","DECAY_DATE":null,"ELEMENT_SET_NO":"999","TLE_LINE1":"1 53201U 22084N   22242.91667824 -.01223744  00000-0 -65444-1 0  9991","REF_FRAME":"TEME","SEMIMAJOR_AXIS":"6889.660","EPOCH":"2022-08-30T22:00:00.999936","APOAPSIS":"512.967","REV_AT_EPOCH":"130","TIME_SYSTEM":"UTC","ECCENTRICITY":"0.00020930","MEAN_MOTION":"15.18120036","SITE":"AFWTR","TLE_LINE2":"2 53201  97.6556 303.0387 0002093 109.8643 103.0632 15.18120036  1306","CLASSIFICATION_TYPE":"U","OBJECT_NAME":"STARLINK-4405","OBJECT_ID":"2022-084N","ARG_OF_PERICENTER":"109.8643","PERIOD":"94.854","LAUNCH_DATE":"2022-07-22","MEAN_MOTION_DOT":"-0.01223744","PERIAPSIS":"510.083","RCS_SIZE":"LARGE","MEAN_ANOMALY":"103.0632","OBJECT_TYPE":"PAYLOAD","COUNTRY_CODE":"US"},{"REF_FRAME":"TEME","TLE_LINE1":"1 53202U 22084P   22242.91667824 -.00017770  00000-0 -55572-3 0  9994","APOAPSIS":"467.432","SEMIMAJOR_AXIS":"6844.814","EPOCH":"2022-08-30T22:00:00.999936","CENTER_NAME":"EARTH","EPHEMERIS_TYPE":"0","MEAN_MOTION_DDOT":"0.0000000000000","GP_ID":"211363021","MEAN_ELEMENT_THEORY":"SGP4","RA_OF_ASC_NODE":"303.0812","ELEMENT_SET_NO":"999","DECAY_DATE":null,"FILE":"3552179","NORAD_CAT_ID":"53202","BSTAR":"-0.00055572000000","INCLINATION":"97.6540","CLASSIFICATION_TYPE":"U","ARG_OF_PERICENTER":"113.7954","PERIOD":"93.930","OBJECT_NAME":"STARLINK-4411","OBJECT_ID":"2022-084P","SITE":"AFWTR","TLE_LINE2":"2 53202  97.6540 303.0812 0001100 113.7954 238.2493 15.33063938  1300","OBJECT_TYPE":"PAYLOAD","COUNTRY_CODE":"US","RCS_SIZE":"LARGE","MEAN_MOTION_DOT":"-0.00017770","LAUNCH_DATE":"2022-07-22","PERIAPSIS":"465.926","MEAN_ANOMALY":"238.2493","TIME_SYSTEM":"UTC","REV_AT_EPOCH":"130","MEAN_MOTION":"15.33063938","ECCENTRICITY":"0.00011000"},{"CLASSIFICATION_TYPE":"U","OBJECT_ID":"2022-084Q","OBJECT_NAME":"STARLINK-4409","ARG_OF_PERICENTER":"119.6375","PERIOD":"94.841","SITE":"AFWTR","TLE_LINE2":"2 53203  97.6556 303.0370 0002202 119.6375 104.9351 15.18328271  1302","OBJECT_TYPE":"PAYLOAD","COUNTRY_CODE":"US","LAUNCH_DATE":"2022-07-22","MEAN_MOTION_DOT":"-0.01223725","PERIAPSIS":"509.378","RCS_SIZE":"LARGE","MEAN_ANOMALY":"104.9351","TIME_SYSTEM":"UTC","REV_AT_EPOCH":"130","MEAN_MOTION":"15.18328271","ECCENTRICITY":"0.00022020","REF_FRAME":"TEME","TLE_LINE1":"1 53203U 22084Q   22242.91667824 -.01223725  00000-0 -65049-1 0  9993","APOAPSIS":"512.412","SEMIMAJOR_AXIS":"6889.030","EPOCH":"2022-08-30T22:00:00.999936","CENTER_NAME":"EARTH","MEAN_MOTION_DDOT":"0.0000000000000","GP_ID":"211363883","EPHEMERIS_TYPE":"0","MEAN_ELEMENT_THEORY":"SGP4","RA_OF_ASC_NODE":"303.0370","DECAY_DATE":null,"FILE":"3552179","ELEMENT_SET_NO":"999","NORAD_CAT_ID":"53203","BSTAR":"-0.06504900000000","INCLINATION":"97.6556"},{"REF_FRAME":"TEME","TLE_LINE1":"1 53204U 22084R   22242.91667824 -.01223791  00000-0 -65767-1 0  9994","APOAPSIS":"513.596","SEMIMAJOR_AXIS":"6890.175","EPOCH":"2022-08-30T22:00:00.999936","CENTER_NAME":"EARTH","MEAN_MOTION_DDOT":"0.0000000000000","GP_ID":"211363165","EPHEMERIS_TYPE":"0","MEAN_ELEMENT_THEORY":"SGP4","RA_OF_ASC_NODE":"303.0382","FILE":"3552179","DECAY_DATE":null,"ELEMENT_SET_NO":"999","NORAD_CAT_ID":"53204","BSTAR":"-0.06576700000000","INCLINATION":"97.6556","CLASSIFICATION_TYPE":"U","OBJECT_NAME":"STARLINK-4410","OBJECT_ID":"2022-084R","ARG_OF_PERICENTER":"122.6616","PERIOD":"94.865","SITE":"AFWTR","TLE_LINE2":"2 53204  97.6556 303.0382 0002258 122.6616  81.7459 15.17949691  1304","OBJECT_TYPE":"PAYLOAD","COUNTRY_CODE":"US","LAUNCH_DATE":"2022-07-22","MEAN_MOTION_DOT":"-0.01223791","PERIAPSIS":"510.484","RCS_SIZE":"LARGE","MEAN_ANOMALY":"81.7459","TIME_SYSTEM":"UTC","REV_AT_EPOCH":"130","MEAN_MOTION":"15.17949691","ECCENTRICITY":"0.00022580"}];
